POPSAT-HIP-1            
1 40028U 14033U   15042.06058812  .00003965  00000-0  45525-3 0  9994
2 40028  97.9677 302.1584 0013364 233.4828 126.5149 14.86367089 35043
FLOCK 1C-2              
1 40029U 14033V   15042.18496726  .00002697  00000-0  30860-3 0  9995
2 40029  97.9685 302.3511 0013532 232.7045 127.2924 14.86783942 35066
FLOCK 1C-4              
1 40031U 14033X   15042.17776662  .00002849  00000-0  32567-3 0  9992
2 40031  97.9678 302.3659 0014053 230.3675 129.6299 14.86772103 35053
QB50P2                  
1 40032U 14033Y   15042.09908464  .00004034  00000-0  46620-3 0  9994
2 40032  97.9622 301.9935 0011328 229.6355 130.3885 14.86103136 35057
FLOCK 1C-11             
1 40033U 14033Z   15041.98986591  .00002694  00000-0  30819-3 0  9992
2 40033  97.9713 302.1732 0011938 229.2766 130.7405 14.86813181 35045
ANTELSAT                
1 40034U 14033AA  15042.12532784  .00002777  00000-0  43551-3 0  9990
2 40034  97.9588 296.8747 0060473 162.4848 197.8474 14.72228790 34745
FLOCK 1C-9              
1 40035U 14033AB  15042.19947044  .00002664  00000-0  30494-3 0  9994
2 40035  97.9714 302.3981 0011549 224.8854 135.1428 14.86794949 35069
FLOCK 1C-6              
1 40036U 14033AC  15042.14391533  .00002807  00000-0  32082-3 0  9990
2 40036  97.9703 302.3369 0011451 226.9988 133.0245 14.86814534 35068
PERSEUS-M2              
1 40037U 14033AD  15042.02840029  .00001924  00000-0  23000-3 0  9996
2 40037  97.9694 301.9276 0013490 228.7720 131.2358 14.85311004 35023
FLOCK 1C-5              
1 40038U 14033AE  15042.15777395  .00003330  00000-0  37958-3 0  9996
2 40038  97.9722 302.2929 0013736 225.3196 134.6937 14.86774232 35058
PERSEUS-M1              
1 40039U 14033AF  15042.15165065  .00001802  00000-0  21773-3 0  9992
2 40039  97.9695 301.9677 0013686 221.3410 138.6777 14.84952239 35041
FLOCK 1C-8              
1 40040U 14033AG  15042.02200593  .00007912  00000-0  88887-3 0  9993
2 40040  97.9739 302.1966 0012632 220.5971 139.4320 14.86956527 35037
FLOCK 1C-3              
1 40041U 14033AH  15042.16495806  .00003088  00000-0  35252-3 0  9990
2 40041  97.9710 302.3136 0012451 221.7599 138.2712 14.86781651 35054
POLYITAN-1              
1 40042U 14033AJ  15041.98448119  .00004716  00000-0  54845-3 0  9993
2 40042  97.9723 301.9121 0014424 222.0751 137.9358 14.85735692 35015
TIGRISAT                
1 40043U 14033AK  15042.19282819  .00002055  00000-0  31908-3 0  9990
2 40043  97.9585 297.2037 0061173 165.6377 194.6605 14.72914861 34628
LEMUR-1                 
1 40044U 14033AL  15042.14102704  .00001641  00000-0  25740-3 0  9997
2 40044  97.9587 297.1263 0060250 166.0811 194.2081 14.72789164 34624
AEROCUBE 6A             
1 40045U 14033AM  15041.95557874  .00003824  00000-0  59047-3 0  9990
2 40045  97.9606 296.8005 0060080 163.1160 197.2081 14.72696402 34448
AEROCUBE 6B             
1 40046U 14033AN  15042.09220478  .00003886  00000-0  59999-3 0  9998
2 40046  97.9590 296.9217 0059794 162.4926 197.8359 14.72706348 34590
UKUBE-1                 
1 40074U 14037F   15042.10044658  .00003710  00000-0  47997-3 0  9990
2 40074  98.3737 108.6835 0004021 299.8754  60.2058 14.81544136 32166
BRITE-PL 2              
1 40119U 14049B   15041.16050457  .00001882  00000-0  23706-3 0  9992
2 40119  98.0010 117.8382 0018060   9.1298 351.0308 14.83118419 25938
FLOCK 1B-24             
1 40122U 98067EU  15041.83908058  .00436048  00000-0  19719-2 0  9995
2 40122  51.6257 340.6019 0001842  27.1370  72.9005 15.82226775 63114
FLOCK 1B-23             
1 40123U 98067EV  15042.18889787  .00323870  49619-4  10777-2 0  9998
2 40123  51.6258 337.6694 0005382 151.6291 308.8641 15.89740512 63180
FLOCK 1B-2              
1 40132U 98067FB  15042.19649021  .00343307  00000-0  13265-2 0  9993
2 40132  51.6228 336.8542 0002684 121.5974  19.9971 15.85778074 27115
FLOCK 1B-8              
1 40133U 98067FC  15042.05378277  .00665873  18683-3  20676-2 0  9999
2 40133  51.6260 336.7724 0002359  60.8003  26.6184 15.91047177 63403
FLOCK 1B-17             
1 40140U 98067FF  15042.05973611  .00384279  67876-4  11005-2 0  9993
2 40140  51.6272 338.3164 0003111  48.6481  39.9677 15.92642755 24855
FIREBIRD 4              
1 40378U 15003C   15042.01694469  .00020557  00000-0  10777-2 0  9995
2 40378  99.1255  52.3818 0166059 305.9673  52.6240 15.04615928  1564
GRIFEX                  
1 40379U 15003D   15042.01774361  .00016697  00000-0  88155-3 0  9992
2 40379  99.1269  52.3818 0165865 306.8895  51.7244 15.04461605  1565
EXOCUBE                 
1 40380U 15003E   15041.55311169  .00013704  00000-0  72928-3 0  9992
2 40380  99.1287  51.8351 0165740 307.5897  51.0369 15.04274046  1499
AESP 14                 
1 40389U 98067FM  15042.09220200  .00135028  00000-0  18544-2 0  9994
2 40389  51.6467 353.7001 0005906  16.5651  73.7038 15.56340563  6392
